<?xml version="1.0" encoding="UTF-8"?>
<ndm xmlns:xsi="http://www.w3.org/2001/XMLSchema-instance" xsi:noNamespaceSchemaLocation="https://sanaregistry.org/r/ndmxml_unqualified/ndmxml-2.0.0-master-2.0.xsd">
  <omm id="CCSDS_OMM_VERS" version="2.0">
    <header>
      <CREATION_DATE/>
      <ORIGINATOR/>
    </header>
    <body>
      <segment>
        <metadata>
          <OBJECT_NAME>CREW DRAGON 7</OBJECT_NAME>
          <OBJECT_ID>2023-128A</OBJECT_ID>
          <CENTER_NAME>EARTH</CENTER_NAME>
          <REF_FRAME>TEME</REF_FRAME>
          <TIME_SYSTEM>UTC</TIME_SYSTEM>
          <MEAN_ELEMENT_THEORY>SGP4</MEAN_ELEMENT_THEORY>
        </metadata>
        <data>
          <meanElements>
            <EPOCH>2024-01-13T11:15:03.373056</EPOCH>
            <MEAN_MOTION>15.49372261</MEAN_MOTION>
            <ECCENTRICITY>.0004859</ECCENTRICITY>
            <INCLINATION>51.6419</INCLINATION>
            <RA_OF_ASC_NODE>6.9213</RA_OF_ASC_NODE>
            <ARG_OF_PERICENTER>85.9357</ARG_OF_PERICENTER>
            <MEAN_ANOMALY>50.2079</MEAN_ANOMALY>
          </meanElements>
          <tleParameters>
            <EPHEMERIS_TYPE>0</EPHEMERIS_TYPE>
            <CLASSIFICATION_TYPE>U</CLASSIFICATION_TYPE>
            <NORAD_CAT_ID>57697</NORAD_CAT_ID>
            <ELEMENT_SET_NO>999</ELEMENT_SET_NO>
            <REV_AT_EPOCH>43440</REV_AT_EPOCH>
            <BSTAR>.11034E-2</BSTAR>
            <MEAN_MOTION_DOT>.6164E-3</MEAN_MOTION_DOT>
            <MEAN_MOTION_DDOT>0</MEAN_MOTION_DDOT>
          </tleParameters>
        </data>
      </segment>
    </body>
  </omm>
  <omm id="CCSDS_OMM_VERS" version="2.0">
    <header>
      <CREATION_DATE/>
      <ORIGINATOR/>
    </header>
    <body>
      <segment>
        <metadata>
          <OBJECT_NAME>SOYUZ-MS 24</OBJECT_NAME>
          <OBJECT_ID>2023-143A</OBJECT_ID>
          <CENTER_NAME>EARTH</CENTER_NAME>
          <REF_FRAME>TEME</REF_FRAME>
          <TIME_SYSTEM>UTC</TIME_SYSTEM>
          <MEAN_ELEMENT_THEORY>SGP4</MEAN_ELEMENT_THEORY>
        </metadata>
        <data>
          <meanElements>
            <EPOCH>2024-01-13T11:15:03.373056</EPOCH>
            <MEAN_MOTION>15.49372261</MEAN_MOTION>
            <ECCENTRICITY>.0004859</ECCENTRICITY>
            <INCLINATION>51.6419</INCLINATION>
            <RA_OF_ASC_NODE>6.9213</RA_OF_ASC_NODE>
            <ARG_OF_PERICENTER>85.9357</ARG_OF_PERICENTER>
            <MEAN_ANOMALY>50.2079</MEAN_ANOMALY>
          </meanElements>
          <tleParameters>
            <EPHEMERIS_TYPE>0</EPHEMERIS_TYPE>
            <CLASSIFICATION_TYPE>U</CLASSIFICATION_TYPE>
            <NORAD_CAT_ID>57862</NORAD_CAT_ID>
            <ELEMENT_SET_NO>999</ELEMENT_SET_NO>
            <REV_AT_EPOCH>43440</REV_AT_EPOCH>
            <BSTAR>.11034E-2</BSTAR>
            <MEAN_MOTION_DOT>.6164E-3</MEAN_MOTION_DOT>
            <MEAN_MOTION_DDOT>0</MEAN_MOTION_DDOT>
          </tleParameters>
        </data>
      </segment>
    </body>
  </omm>
  <omm id="CCSDS_OMM_VERS" version="2.0">
    <header>
      <CREATION_DATE/>
      <ORIGINATOR/>
    </header>
    <body>
      <segment>
        <metadata>
          <OBJECT_NAME>SHENZHOU-17 (SZ-17)</OBJECT_NAME>
          <OBJECT_ID>2023-164A</OBJECT_ID>
          <CENTER_NAME>EARTH</CENTER_NAME>
          <REF_FRAME>TEME</REF_FRAME>
          <TIME_SYSTEM>UTC</TIME_SYSTEM>
          <MEAN_ELEMENT_THEORY>SGP4</MEAN_ELEMENT_THEORY>
        </metadata>
        <data>
          <meanElements>
            <EPOCH>2024-01-13T07:06:11.928960</EPOCH>
            <MEAN_MOTION>15.62791630</MEAN_MOTION>
            <ECCENTRICITY>.0004614</ECCENTRICITY>
            <INCLINATION>41.4699</INCLINATION>
            <RA_OF_ASC_NODE>315.4730</RA_OF_ASC_NODE>
            <ARG_OF_PERICENTER>104.5678</ARG_OF_PERICENTER>
            <MEAN_ANOMALY>255.5673</MEAN_ANOMALY>
          </meanElements>
          <tleParameters>
            <EPHEMERIS_TYPE>0</EPHEMERIS_TYPE>
            <CLASSIFICATION_TYPE>U</CLASSIFICATION_TYPE>
            <NORAD_CAT_ID>58146</NORAD_CAT_ID>
            <ELEMENT_SET_NO>999</ELEMENT_SET_NO>
            <REV_AT_EPOCH>15469</REV_AT_EPOCH>
            <BSTAR>.4921E-3</BSTAR>
            <MEAN_MOTION_DOT>.45535E-3</MEAN_MOTION_DOT>
            <MEAN_MOTION_DDOT>0</MEAN_MOTION_DDOT>
          </tleParameters>
        </data>
      </segment>
    </body>
  </omm>
  <omm id="CCSDS_OMM_VERS" version="2.0">
    <header>
      <CREATION_DATE/>
      <ORIGINATOR/>
    </header>
    <body>
      <segment>
        <metadata>
          <OBJECT_NAME>ISS DEB</OBJECT_NAME>
          <OBJECT_ID>1998-067WA</OBJECT_ID>
          <CENTER_NAME>EARTH</CENTER_NAME>
          <REF_FRAME>TEME</REF_FRAME>
          <TIME_SYSTEM>UTC</TIME_SYSTEM>
          <MEAN_ELEMENT_THEORY>SGP4</MEAN_ELEMENT_THEORY>
        </metadata>
        <data>
          <meanElements>
            <EPOCH>2024-01-13T08:00:08.339040</EPOCH>
            <MEAN_MOTION>15.62907862</MEAN_MOTION>
            <ECCENTRICITY>.0006343</ECCENTRICITY>
            <INCLINATION>51.6379</INCLINATION>
            <RA_OF_ASC_NODE>4.0445</RA_OF_ASC_NODE>
            <ARG_OF_PERICENTER>63.9797</ARG_OF_PERICENTER>
            <MEAN_ANOMALY>296.1850</MEAN_ANOMALY>
          </meanElements>
          <tleParameters>
            <EPHEMERIS_TYPE>0</EPHEMERIS_TYPE>
            <CLASSIFICATION_TYPE>U</CLASSIFICATION_TYPE>
            <NORAD_CAT_ID>58174</NORAD_CAT_ID>
            <ELEMENT_SET_NO>999</ELEMENT_SET_NO>
            <REV_AT_EPOCH>1241</REV_AT_EPOCH>
            <BSTAR>.13415E-2</BSTAR>
            <MEAN_MOTION_DOT>.125225E-2</MEAN_MOTION_DOT>
            <MEAN_MOTION_DDOT>0</MEAN_MOTION_DDOT>
          </tleParameters>
        </data>
      </segment>
    </body>
  </omm>
  <omm id="CCSDS_OMM_VERS" version="2.0">
    <header>
      <CREATION_DATE/>
      <ORIGINATOR/>
    </header>
    <body>
      <segment>
        <metadata>
          <OBJECT_NAME>ISS DEB</OBJECT_NAME>
          <OBJECT_ID>1998-067WC</OBJECT_ID>
          <CENTER_NAME>EARTH</CENTER_NAME>
          <REF_FRAME>TEME</REF_FRAME>
          <TIME_SYSTEM>UTC</TIME_SYSTEM>
          <MEAN_ELEMENT_THEORY>SGP4</MEAN_ELEMENT_THEORY>
        </metadata>
        <data>
          <meanElements>
            <EPOCH>2024-01-13T23:50:34.499904</EPOCH>
            <MEAN_MOTION>15.56817709</MEAN_MOTION>
            <ECCENTRICITY>.0004157</ECCENTRICITY>
            <INCLINATION>51.6391</INCLINATION>
            <RA_OF_ASC_NODE>2.4593</RA_OF_ASC_NODE>
            <ARG_OF_PERICENTER>62.2252</ARG_OF_PERICENTER>
            <MEAN_ANOMALY>297.9161</MEAN_ANOMALY>
          </meanElements>
          <tleParameters>
            <EPHEMERIS_TYPE>0</EPHEMERIS_TYPE>
            <CLASSIFICATION_TYPE>U</CLASSIFICATION_TYPE>
            <NORAD_CAT_ID>58229</NORAD_CAT_ID>
            <ELEMENT_SET_NO>999</ELEMENT_SET_NO>
            <REV_AT_EPOCH>1128</REV_AT_EPOCH>
            <BSTAR>.85138E-3</BSTAR>
            <MEAN_MOTION_DOT>.62241E-3</MEAN_MOTION_DOT>
            <MEAN_MOTION_DDOT>0</MEAN_MOTION_DDOT>
          </tleParameters>
        </data>
      </segment>
    </body>
  </omm>
  <omm id="CCSDS_OMM_VERS" version="2.0">
    <header>
      <CREATION_DATE/>
      <ORIGINATOR/>
    </header>
    <body>
      <segment>
        <metadata>
          <OBJECT_NAME>PROGRESS-MS 25</OBJECT_NAME>
          <OBJECT_ID>2023-184A</OBJECT_ID>
          <CENTER_NAME>EARTH</CENTER_NAME>
          <REF_FRAME>TEME</REF_FRAME>
          <TIME_SYSTEM>UTC</TIME_SYSTEM>
          <MEAN_ELEMENT_THEORY>SGP4</MEAN_ELEMENT_THEORY>
        </metadata>
        <data>
          <meanElements>
            <EPOCH>2024-01-13T11:15:03.373056</EPOCH>
            <MEAN_MOTION>15.49372261</MEAN_MOTION>
            <ECCENTRICITY>.0004859</ECCENTRICITY>
            <INCLINATION>51.6419</INCLINATION>
            <RA_OF_ASC_NODE>6.9213</RA_OF_ASC_NODE>
            <ARG_OF_PERICENTER>85.9357</ARG_OF_PERICENTER>
            <MEAN_ANOMALY>50.2079</MEAN_ANOMALY>
          </meanElements>
          <tleParameters>
            <EPHEMERIS_TYPE>0</EPHEMERIS_TYPE>
            <CLASSIFICATION_TYPE>U</CLASSIFICATION_TYPE>
            <NORAD_CAT_ID>58460</NORAD_CAT_ID>
            <ELEMENT_SET_NO>999</ELEMENT_SET_NO>
            <REV_AT_EPOCH>43440</REV_AT_EPOCH>
            <BSTAR>.11034E-2</BSTAR>
            <MEAN_MOTION_DOT>.6164E-3</MEAN_MOTION_DOT>
            <MEAN_MOTION_DDOT>0</MEAN_MOTION_DDOT>
          </tleParameters>
        </data>
      </segment>
    </body>
  </omm>
  
</ndm>

