CREW DRAGON 7           
1 57697U 23128A   24013.46878904  .00061640  00000+0  11034-2 0  9993
2 57697  51.6419   6.9213 0004859  85.9357  50.2079 15.49372261434404
SOYUZ-MS 24             
1 57862U 23143A   24013.46878904  .00061640  00000+0  11034-2 0  9994
2 57862  51.6419   6.9213 0004859  85.9357  50.2079 15.49372261434408
SHENZHOU-17 (SZ-17)     
1 58146U 23164A   24013.29597140  .00045535  00000+0  49210-3 0  9997
2 58146  41.4699 315.4730 0004614 104.5678 255.5673 15.62791630154696
ISS DEB                 
1 58174U 98067WA  24013.33342985  .00125225  00000+0  13415-2 0  9994
2 58174  51.6379   4.0445 0006343  63.9797 296.1850 15.62907862 12417
ISS DEB                 
1 58229U 98067WC  24013.99345486  .00062241  00000+0  85138-3 0  9996
2 58229  51.6391   2.4593 0004157  62.2252 297.9161 15.56817709 11288
PROGRESS-MS 25          
1 58460U 23184A   24013.46878904  .00061640  00000+0  11034-2 0  9994
2 58460  51.6419   6.9213 0004859  85.9357  50.2079 15.49372261434403
